OSIRIS-3U               
1 43027U 98067NL  18356.81476065  .00077991  00000-0  38152-3 0  9991
2 43027  51.6354 126.1959 0001964 229.1179 130.9653 15.81592084 62071
AEROCUBE 7B             
1 43042U 17071F   18356.83323933  .00002205  00000-0  64248-4 0  9993
2 43042  51.6369 201.6971 0004432 222.6702 137.3939 15.40031224 58667
AEROCUBE 7C             
1 43043U 17071G   18356.50880323  .00002255  00000-0  65503-4 0  9999
2 43043  51.6373 203.2906 0004503 223.4277 136.6354 15.40026208 58584
CHEFSAT                 
1 43044U 17071H   18356.49150384  .00004259  00000-0  10857-3 0  9992
2 43044  51.6374 200.9873 0004416 220.1314 139.9346 15.41764743 58617
ASGARDIA 1              
1 43049U 17071N   18356.47472248  .00002082  00000-0  60973-4 0  9998
2 43049  51.6379 203.0776 0001865 237.4367 122.6437 15.40146709 58577
ISARA                   
1 43050U 17071P   18356.45739582  .00003873  00000-0  10073-3 0  9999
2 43050  51.6369 201.4881 0001760 227.3379 132.7458 15.41406553 58596
FAUNA                   
1 43052U 17071R   18356.44301896  .00002466  00000-0  69960-4 0  9990
2 43052  51.6377 202.8803 0001794 231.3123 128.7702 15.40347053 58578
CORVUS BC3              
1 43118U 18004H   18356.45205080  .00000704  00000-0  33388-4 0  9997
2 43118  97.5111  59.1947 0011375 149.2485 210.9419 15.22553742 52355
MICROMAS-2A             
1 43131U 18004W   18355.73141560  .00001662  00000-0  72697-4 0  9994
2 43131  97.5127  58.8165 0010370 153.6653 206.5113 15.23461345 52265
CICERO 7                
1 43143U 18004AJ  18356.76311370  .00001277  00000-0  56144-4 0  9990
2 43143  97.5118  60.0348 0008290 157.1174 203.0434 15.23726622 52430
GOMX4-B                 
1 43196U 18015E   18356.55370521  .00000022  00000-0  38725-5 0  9993
2 43196  97.3680 121.9292 0018047 211.0477 148.9699 15.23762235 49214
GOMX4-A                 
1 43197U 18015F   18356.83142487  .00000360  00000-0  17820-4 0  9990
2 43197  97.3698 122.2107 0018261 210.0074 273.0568 15.23856620 49265
1KUNS-PF                
1 43466U 98067NP  18356.84953324  .00012640  00000-0  15842-3 0  9990
2 43466  51.6374 152.8392 0001009 145.7384 214.3674 15.60155701 35100
UBAKUSAT                
1 43467U 98067NQ  18356.66820336  .00008901  00000-0  11912-3 0  9996
2 43467  51.6371 154.6265 0003073 119.6959 240.4340 15.58853696 35079
BATSU-CS1 (IRAZU)       
1 43468U 98067NR  18356.84899119  .00015498  00000-0  18563-3 0  9990
2 43468  51.6372 152.0843 0000908 153.6686 206.4354 15.61147857135105
CUBERRT                 
1 43546U 98067NU  18356.45176455  .00006693  00000-0  92091-4 0  9991
2 43546  51.6367 157.6717 0006199 179.1914 180.9089 15.58582519 25149
TEMPEST-D               
1 43547U 98067NV  18356.48239640  .00003510  00000-0  56338-4 0  9990
2 43547  51.6375 158.6223 0006251 171.2946 188.8155 15.56035704 24810
RAINCUBE                
1 43548U 98067NW  18356.43306630  .00007743  00000-0  11049-3 0  9991
2 43548  51.6374 158.2947 0006164 183.1333 176.9621 15.57326853 25269
HALOSAT                 
1 43549U 98067NX  18356.81827393  .00006778  00000-0  97523-4 0  9997
2 43549  51.6377 156.3691 0005981 186.6042 173.4873 15.57343033 24886
ENDUROSAT ONE           
1 43551U 98067NZ  18356.83511372  .00010225  00000-0  13990-3 0  9996
2 43551  51.6372 155.7287 0006498 194.1560 165.9251 15.58052529 25303
EQUISAT                 
1 43552U 98067PA  18356.53327487  .00009614  00000-0  13405-3 0  9997
2 43552  51.6372 157.4652 0006731 192.5570 167.5256 15.57621435 25212
AEROCUBE 12A            
1 43556U 18046C   18356.47865584  .00001455  00000-0  65063-4 0  9991
2 43556  51.6418 191.1375 0008863 149.3815 210.7684 15.28132856 24301
AEROCUBE 12B            
1 43557U 18046D   18356.80836034  .00001389  00000-0  62773-4 0  9998
2 43557  51.6417 189.5872 0008864 150.8800 209.2676 15.28075037 24307
UITMSAT-1               
1 43589U 98067PD  18356.45796389  .00010138  00000-0  14264-3 0  9996
2 43589  51.6367 158.4568 0006123 200.2083 159.8667 15.57309084 20931
MAYA-1                  
1 43590U 98067PE  18356.45562315  .00010248  00000-0  14397-3 0  9997
2 43590  51.6369 158.4422 0006158 201.1127 158.9612 15.57335412 20867
BHUTAN-1                
1 43591U 98067PF  18356.45217239  .00009886  00000-0  13890-3 0  9993
2 43591  51.6372 158.4194 0006287 201.9642 158.1081 15.57378586 20862
SIRIUSSAT-1             
1 43595U 98067PG  18356.81340767  .00009047  00000-0  13013-3 0  9996
2 43595  51.6370 157.0770 0004163 156.2132 203.9053 15.56872144 20097
SIRIUSSAT-2             
1 43596U 98067PH  18356.50461095  .00008742  00000-0  12671-3 0  9991
2 43596  51.6376 158.7774 0004825 158.7501 201.3692 15.56711139 20040
TANUSHA-3               
1 43597U 98067PJ  18356.67728135  .00010957  00000-0  15409-3 0  9994
2 43597  51.6354 157.6547 0004288 171.3291 188.7776 15.57230410 20076
SURFSAT                 
1 43614U 18070B   18356.47695864  .00002410  00000-0  67369-4 0  9998
2 43614  93.0375 289.9880 0013702 274.2518  85.7169 15.36693538 15037
CP-7 (DAVE)             
1 43615U 18070C   18356.47692036  .00002201  00000-0  61573-4 0  9996
2 43615  93.0376 289.9889 0013753 273.9467  86.0213 15.36676265 15035
ELFIN-B                 
1 43616U 18070D   18356.46879826  .00003264  00000-0  90449-4 0  9994
2 43616  93.0346 289.9457 0014850 278.4449  81.5120 15.36913769 15033
ELFIN-A                 
1 43617U 18070E   18356.79228162  .00003275  00000-0  90702-4 0  9996
2 43617  93.0397 290.1566 0013847 272.5226  87.4442 15.36954260 15086
DEBRISSAT-1             
1 43621U 98067PM  18356.54925027  .00108034  00000-0  94735-3 0  9990
2 43621  51.6433 154.6328 0008134 200.3319 159.7347 15.67977763 15092
CUBEBEL-1 (BSUSAT-1)    
1 43666U 18083E   18356.77223630  .00000903  00000-0  48770-4 0  9990
2 43666  97.5350  17.3534 0016872  86.4456  31.6557 15.17199250  8304
DEBRISSAT-2             
1 43680U 98067PR  18355.96649011  .00014614  00000-0  20630-3 0  9999
2 43680  51.6371 161.1624 0003477 165.7496 194.3595 15.56818229 28706
CICERO 10               
1 43690U 18088A   18356.48601220  .00001061  00000-0  48228-4 0  9999
2 43690  85.0392  75.7938 0017033 135.4219 224.8395 15.19310228  6280
IRVINE01                
1 43693U 18088D   18356.45234289  .00002016  00000-0  89701-4 0  9998
2 43693  85.0372  75.7494 0020915 124.7738 235.5476 15.20597887  6276
PROXIMA I               
1 43694U 18088E   18356.76731023  .00000864  00000-0  36835-4 0  9990
2 43694  85.0336  75.4976 0021774 115.6034 244.7460 15.21061700  6323
PROXIMA II              
1 43696U 18088G   18356.50397581  .00000873  00000-0  37221-4 0  9991
2 43696  85.0337  75.6717 0021799 116.4525 243.8956 15.21067184  6289
FACSAT-1                
1 43721U 18096C   18356.83761112  .00001257  00000-0  51978-4 0  9992
2 43721  97.4826  61.8419 0017096 233.4651 126.5013 15.25762105  3613
CENTAURI-2              
1 43722U 18096D   18356.83640131  .00001647  00000-0  67025-4 0  9993
2 43722  97.4827  61.8438 0017221 234.4676 125.4957 15.25849584  3605
